{
    "links": {
        "self": "http://www.neowsapp.com/rest/v1/neo/54062079?api_key=iIulBulltgU6a56xZRHN4H3l9WmuAYTsLGpBGhQ2"
    },
    "id": "54062079",
    "neo_reference_id": "54062079",
    "name": "(2020 TO4)",
    "designation": "2020 TO4",
    "nasa_jpl_url": "http://ssd.jpl.nasa.gov/sbdb.cgi?sstr=54062079",
    "absolute_magnitude_h": 26.621,
    "estimated_diameter": {
        "kilometers": {
            "estimated_diameter_min": 0.0125995483,
            "estimated_diameter_max": 0.0281734465
        },
        "meters": {
            "estimated_diameter_min": 12.5995483256,
            "estimated_diameter_max": 28.1734465417
        },
        "miles": {
            "estimated_diameter_min": 0.0078289939,
            "estimated_diameter_max": 0.0175061627
        },
        "feet": {
            "estimated_diameter_min": 41.3371021284,
            "estimated_diameter_max": 92.432570352
        }
    },
    "is_potentially_hazardous_asteroid": false,
    "close_approach_data": [
        {
            "close_approach_date": "2018-11-01",
            "close_approach_date_full": "2018-Nov-01 16:06",
            "epoch_date_close_approach": 1541088360000,
            "relative_velocity": {
                "kilometers_per_second": "21.7799967465",
                "kilometers_per_hour": "78407.9882873834",
                "miles_per_hour": "48719.6747222356"
            },
            "miss_distance": {
                "astronomical": "0.3889025858",
                "lunar": "151.2831058762",
                "kilometers": "58178998.473172246",
                "miles": "36150753.3185231548"
            },
            "orbiting_body": "Earth"
        },
        {
            "close_approach_date": "2020-05-29",
            "close_approach_date_full": "2020-May-29 07:03",
            "epoch_date_close_approach": 1590735780000,
            "relative_velocity": {
                "kilometers_per_second": "7.5690902457",
                "kilometers_per_hour": "27248.7248844629",
                "miles_per_hour": "16931.2979705709"
            },
            "miss_distance": {
                "astronomical": "0.4799859179",
                "lunar": "186.7145220631",
                "kilometers": "71804870.947834873",
                "miles": "44617477.8670443274"
            },
            "orbiting_body": "Earth"
        },
        {
            "close_approach_date": "2020-10-09",
            "close_approach_date_full": "2020-Oct-09 12:28",
            "epoch_date_close_approach": 1602246480000,
            "relative_velocity": {
                "kilometers_per_second": "12.6521659495",
                "kilometers_per_hour": "45547.7974182356",
                "miles_per_hour": "28301.6300124587"
            },
            "miss_distance": {
                "astronomical": "0.0156267688",
                "lunar": "6.0788130632",
                "kilometers": "2337731.327462456",
                "miles": "1452598.8889796528"
            },
            "orbiting_body": "Earth"
        }
    ],
    "orbital_data": {
        "orbit_id": "2",
        "orbit_determination_date": "2020-10-16 08:05:59",
        "first_observation_date": "2020-10-13",
        "last_observation_date": "2020-10-16",
        "data_arc_in_days": 3,
        "observations_used": 24,
        "orbit_uncertainty": "8",
        "minimum_orbit_intersection": ".00901621",
        "jupiter_tisserand_invariant": "4.298",
        "epoch_osculation": "2459136.5",
        "eccentricity": ".4034170711649834",
        "semi_major_axis": "1.559861490122434",
        "inclination": "16.21837227113688",
        "ascending_node_longitude": "16.45515967843829",
        "orbital_period": "711.5861414784877",
        "perihelion_distance": ".9305867363541952",
        "perihelion_argument": "316.4845638342002",
        "aphelion_distance": "2.189136243890673",
        "perihelion_time": "2459097.358405586846",
        "mean_anomaly": "19.80220407252188",
        "mean_motion": ".5059120449591883",
        "equinox": "J2000",
        "orbit_class": {
            "orbit_class_type": "APO",
            "orbit_class_description": "Near-Earth asteroid orbits which cross the Earth’s orbit similar to that of 1862 Apollo",
            "orbit_class_range": "a (semi-major axis) > 1.0 AU; q (perihelion) < 1.017 AU"
        }
    },
    "is_sentry_object": false
}